NORAD_CAT_ID,OBJECT_NAME,OBJECT_TYPE,EPOCH,MEAN_MOTION,ECCENTRICITY,INCLINATION,RA_OF_ASC_NODE,ARG_OF_PERICENTER,MEAN_ANOMALY,BSTAR,MEAN_MOTION_DOT,MEAN_MOTION_DDOT,TLE_LINE0,TLE_LINE1,TLE_LINE2,SEMIMAJOR_AXIS,PERIOD,APOGEE,PERIGEE,DECAYED
52646.0,STARLINK-3832,PAYLOAD,2024-06-03 03:29:26,15.08835163,0.0001044,53.2166,272.6328,101.1669,258.9441,0.00018509,2.659e-05,0.0,0 STARLINK-3832,1 52646U 22052BA  24155.14544111  .00002659  00000-0  18509-3 0  9990,2 52646  53.2166 272.6328 0001044 101.1669 258.9441 15.08835163114202,6917.895,95.438,540.482,539.038,0.0
52646.0,STARLINK-3832,PAYLOAD,2024-06-03 13:01:44,15.08851214,0.0001062,53.2167,270.8485,95.4642,264.6471,0.00048356,7.419e-05,0.0,0 STARLINK-3832,1 52646U 22052BA  24155.54287663  .00007419  00000-0  48356-3 0  9992,2 52646  53.2167 270.8485 0001062  95.4642 264.6471 15.08851214114261,6917.846,95.437,540.446,538.976,0.0
52646.0,STARLINK-3832,PAYLOAD,2024-06-03 14:37:07,15.08855665,0.0001067,53.2166,270.551,93.7656,266.3458,0.00061827,9.57e-05,0.0,0 STARLINK-3832,1 52646U 22052BA  24155.60911571  .00009570  00000-0  61827-3 0  9999,2 52646  53.2166 270.5510 0001067  93.7656 266.3458 15.08855665113905,6917.833,95.437,540.436,538.959,0.0
52646.0,STARLINK-3832,PAYLOAD,2024-06-03 19:23:16,15.0886532,0.0001065,53.2167,269.659,96.139,263.9723,0.0010786,0.00016931,0.0,0 STARLINK-3832,1 52646U 22052BA  24155.80783288  .00016931  00000-0  10786-2 0  9999,2 52646  53.2167 269.6590 0001065  96.1390 263.9723 15.08865320113933,6917.803,95.436,540.405,538.931,0.0
52646.0,STARLINK-3832,PAYLOAD,2024-06-04 11:17:08,15.08852593,0.0001224,53.2168,266.6857,94.2473,265.8659,0.00063627,9.856e-05,0.0,0 STARLINK-3832,1 52646U 22052BA  24156.47023411  .00009856  00000-0  63627-3 0  9999,2 52646  53.2168 266.6857 0001224  94.2473 265.8659 15.08852593114405,6917.842,95.437,540.554,538.86,0.0
52646.0,STARLINK-3832,PAYLOAD,2024-06-04 14:27:54,15.08865394,0.000119,53.2169,266.091,92.2756,267.8372,0.0011116,0.0001746,0.0,0 STARLINK-3832,1 52646U 22052BA  24156.60271144  .00017460  00000-0  11116-2 0  9997,2 52646  53.2169 266.0910 0001190  92.2756 267.8372 15.08865394114052,6917.803,95.436,540.491,538.845,0.0
52646.0,STARLINK-3832,PAYLOAD,2024-06-04 17:38:40,15.08866179,0.0001336,53.2168,265.497,89.4446,270.6699,0.0015757,0.00024896,0.0,0 STARLINK-3832,1 52646U 22052BA  24156.73519056  .00024896  00000-0  15757-2 0  9994,2 52646  53.2168 265.4970 0001336  89.4446 270.6699 15.08866179114074,6917.8,95.436,540.59,538.741,0.0
52646.0,STARLINK-3832,PAYLOAD,2024-06-05 00:00:13,15.08846207,0.000231,53.2169,264.3066,87.471,272.6546,0.00079306,0.00012358,0.0,0 STARLINK-3832,1 52646U 22052BA  24157.00015642  .00012358  00000-0  79306-3 0  9998,2 52646  53.2169 264.3066 0002310  87.4710 272.6546 15.08846207114482,6917.861,95.437,541.324,538.128,0.0
52646.0,STARLINK-3832,PAYLOAD,2024-06-05 11:07:55,15.08824067,0.0001255,53.2165,262.226,63.75,296.3621,0.00081984,0.00012778,0.0,0 STARLINK-3832,1 52646U 22052BA  24157.46384236  .00012778  00000-0  81984-3 0  9997,2 52646  53.2165 262.2260 0001255  63.7500 296.3621 15.08824067114557,6917.929,95.439,540.662,538.926,0.0
52646.0,STARLINK-3832,PAYLOAD,2024-06-05 14:18:42,15.08830074,0.0001174,53.2164,261.6313,63.1556,296.9556,0.0014454,0.00022784,0.0,0 STARLINK-3832,1 52646U 22052BA  24157.59632330  .00022784  00000-0  14454-2 0  9997,2 52646  53.2164 261.6313 0001174  63.1556 296.9556 15.08830074114203,6917.911,95.438,540.588,538.964,0.0
52646.0,STARLINK-3832,PAYLOAD,2024-06-05 15:54:05,15.08833039,0.0001203,53.2164,261.3341,60.5274,299.5838,0.001979,0.00031342,0.0,0 STARLINK-3832,1 52646U 22052BA  24157.66256416  .00031342  00000-0  19790-2 0  9990,2 52646  53.2164 261.3341 0001203  60.5274 299.5838 15.08833039114219,6917.902,95.438,540.599,538.934,0.0
52646.0,STARLINK-3832,PAYLOAD,2024-06-06 12:34:05,15.08875248,0.0001279,53.217,257.4693,68.74,291.3729,0.0018282,0.00028956,0.0,0 STARLINK-3832,1 52646U 22052BA  24158.52367784  .00028956  00000-0  18282-2 0  9999,2 52646  53.2170 257.4693 0001279  68.7400 291.3729 15.08875248114718,6917.773,95.435,540.522,538.753,0.0
52646.0,STARLINK-3832,PAYLOAD,2024-06-07 15:35:38,15.08856656,9.82e-05,53.2146,252.411,83.2164,276.894,0.00072265,0.00011237,0.0,0 STARLINK-3832,1 52646U 22052BA  24159.64975513  .00011237  00000-0  72265-3 0  9994,2 52646  53.2146 252.4110 0000982  83.2164 276.8940 15.08856656114882,6917.829,95.437,540.374,539.015,0.0
52646.0,STARLINK-3832,PAYLOAD,2024-06-07 23:32:34,15.08844216,0.0001761,53.2147,250.9255,87.5944,272.525,0.00068916,0.00010698,0.0,0 STARLINK-3832,1 52646U 22052BA  24159.98095878  .00010698  00000-0  68916-3 0  9996,2 52646  53.2147 250.9255 0001761  87.5944 272.5250 15.08844216114937,6917.868,95.437,540.951,538.514,0.0
52646.0,STARLINK-3832,PAYLOAD,2024-06-08 12:15:39,15.08855687,0.0001285,53.2141,248.5459,88.6198,271.4941,0.00036995,5.607e-05,0.0,0 STARLINK-3832,1 52646U 22052BA  24160.51087170  .00005607  00000-0  36995-3 0  9999,2 52646  53.2141 248.5459 0001285  88.6198 271.4941 15.08855687114641,6917.832,95.437,540.586,538.808,0.0
52646.0,STARLINK-3832,PAYLOAD,2024-06-08 17:01:48,15.08865533,0.0001554,53.2144,247.6536,95.5996,264.5173,0.00063426,9.828e-05,0.0,0 STARLINK-3832,1 52646U 22052BA  24160.70958774  .00009828  00000-0  63426-3 0  9995,2 52646  53.2144 247.6536 0001554  95.5996 264.5173 15.08865533114676,6917.802,95.436,540.742,538.592,0.0
52646.0,STARLINK-3832,PAYLOAD,2024-06-08 23:23:21,15.08829726,0.0001437,53.2156,246.4646,97.6834,262.4321,-0.00035511,-5.933e-05,0.0,0 STARLINK-3832,1 52646U 22052BA  24160.97455681 -.00005933  00000-0 -35511-3 0  9992,2 52646  53.2156 246.4646 0001437  97.6834 262.4321 15.08829726115084,6917.912,95.438,540.771,538.783,0.0
52646.0,STARLINK-3832,PAYLOAD,2024-06-09 12:06:27,15.08827779,0.0001533,53.2159,244.0855,105.7342,254.382,-0.00013073,-2.367e-05,0.0,0 STARLINK-3832,1 52646U 22052BA  24161.50448364 -.00002367  00000-0 -13073-3 0  9999,2 52646  53.2159 244.0855 0001533 105.7342 254.3820 15.08827779114792,6917.918,95.438,540.843,538.722,0.0
52646.0,STARLINK-3832,PAYLOAD,2024-06-10 11:57:15,15.08833545,0.000146,53.2166,239.6269,104.4484,255.6671,0.00058679,9.061e-05,0.0,0 STARLINK-3832,1 52646U 22052BA  24162.49809404  .00009061  00000-0  58679-3 0  9991,2 52646  53.2166 239.6269 0001460 104.4484 255.6671 15.08833545115316,6917.9,95.438,540.775,538.755,0.0
52646.0,STARLINK-3832,PAYLOAD,2024-06-11 11:48:01,15.08861543,0.0001236,53.2163,235.1697,100.3535,259.7596,0.00076582,0.00011928,0.0,0 STARLINK-3832,1 52646U 22052BA  24163.49168705  .00011928  00000-0  76582-3 0  9992,2 52646  53.2163 235.1697 0001236 100.3535 259.7596 15.08861543115097,6917.815,95.436,540.535,538.824,0.0
52646.0,STARLINK-3832,PAYLOAD,2024-06-12 11:38:49,15.08842286,0.0001123,53.2159,230.7054,82.9595,277.1525,0.00010806,1.432e-05,0.0,0 STARLINK-3832,1 52646U 22052BA  24164.48528994  .00001432  00000-0  10806-3 0  9998,2 52646  53.2159 230.7054 0001123  82.9595 277.1525 15.08842286115613,6917.873,95.437,540.515,538.962,0.0
52646.0,STARLINK-3832,PAYLOAD,2024-06-13 14:40:22,15.08848736,0.0001127,53.2154,225.6507,83.5511,276.561,0.00030737,4.608e-05,0.0,0 STARLINK-3832,1 52646U 22052BA  24165.61136783  .00004608  00000-0  30737-3 0  9998,2 52646  53.2154 225.6507 0001127  83.5511 276.5610 15.08848736115415,6917.854,95.437,540.498,538.939,0.0
52646.0,STARLINK-3832,PAYLOAD,2024-06-14 11:20:23,15.08841221,0.0001106,53.2155,221.7849,87.5708,272.541,8.8657e-05,1.123e-05,0.0,0 STARLINK-3832,1 52646U 22052BA  24166.47248928  .00001123  00000-0  88657-4 0  9992,2 52646  53.2155 221.7849 0001106  87.5708 272.5410 15.08841221115541,6917.877,95.437,540.507,538.977,0.0
52646.0,STARLINK-3832,PAYLOAD,2024-06-15 12:46:32,15.0885273,0.0001144,53.2158,217.027,90.9145,269.1978,0.00016947,2.411e-05,0.0,0 STARLINK-3832,1 52646U 22052BA  24167.53232232  .00002411  00000-0  16947-3 0  9994,2 52646  53.2158 217.0270 0001144  90.9145 269.1978 15.08852730115701,6917.841,95.437,540.498,538.915,0.0
52646.0,STARLINK-3832,PAYLOAD,2024-06-15 20:43:28,15.08850013,0.0001039,53.2148,215.5407,84.8605,275.2505,0.00011179,1.492e-05,0.0,0 STARLINK-3832,1 52646U 22052BA  24167.86352272  .00001492  00000-0  11179-3 0  9997,2 52646  53.2148 215.5407 0001039  84.8605 275.2505 15.08850013115752,6917.85,95.437,540.434,538.996,0.0
52646.0,STARLINK-3832,PAYLOAD,2024-06-16 09:26:33,15.08842791,0.0001096,53.2152,213.16,90.4035,269.7083,0.00010695,1.415e-05,0.0,0 STARLINK-3832,1 52646U 22052BA  24168.39344554  .00001415  00000-0  10695-3 0  9997,2 52646  53.2152 213.1600 0001096  90.4035 269.7083 15.08842791115831,6917.872,95.437,540.495,538.979,0.0
52646.0,STARLINK-3832,PAYLOAD,2024-06-16 20:34:15,15.0884252,0.000116,53.2156,211.0774,93.9104,266.202,5.765e-05,6.3e-06,0.0,0 STARLINK-3832,1 52646U 22052BA  24168.85712481  .00000630  00000-0  57650-4 0  9997,2 52646  53.2156 211.0774 0001160  93.9104 266.2020 15.08842520115902,6917.873,95.437,540.54,538.935,0.0
52646.0,STARLINK-3832,PAYLOAD,2024-06-17 12:28:07,15.08844513,0.0001412,53.2164,208.1034,98.447,261.6682,-0.00015985,-2.831e-05,0.0,0 STARLINK-3832,1 52646U 22052BA  24169.51953007 -.00002831  00000-0 -15985-3 0  9993,2 52646  53.2164 208.1034 0001412  98.4470 261.6682 15.08844513116002,6917.867,95.437,540.708,538.755,0.0
52646.0,STARLINK-3832,PAYLOAD,2024-06-18 09:08:07,15.08840969,0.0001266,53.2163,204.2397,93.3716,266.742,3.9461e-05,3.4e-06,0.0,0 STARLINK-3832,1 52646U 22052BA  24170.38064723  .00000340  00000-0  39461-4 0  9995,2 52646  53.2163 204.2397 0001266  93.3716 266.7420 15.08840969116135,6917.877,95.437,540.618,538.867,0.0
52646.0,STARLINK-3832,PAYLOAD,2024-06-18 18:40:26,15.08838083,0.000128,53.2163,202.4561,93.1463,266.9675,4.1895e-05,3.79e-06,0.0,0 STARLINK-3832,1 52646U 22052BA  24170.77808929  .00000379  00000-0  41895-4 0  9998,2 52646  53.2163 202.4561 0001280  93.1463 266.9675 15.08838083116566,6917.886,95.438,540.637,538.866,0.0
